{"fetched_at":"2026-07-20T18:28:58.427Z","source":"https://celestrak.org/NORAD/elements/gp.php?GROUP=qianfan&FORMAT=JSON","constellation":"qianfan","records":[{"OBJECT_NAME":"QIANFAN-225","OBJECT_ID":"2026-155G","EPOCH":"2026-07-19T07:14:49.574688","CLASSIFICATION_TYPE":"U","MEAN_MOTION":14.18662242,"ECCENTRICITY":0.00342677,"INCLINATION":89.0056,"RA_OF_ASC_NODE":60.4814,"ARG_OF_PERICENTER":215.2357,"MEAN_ANOMALY":144.6567,"EPHEMERIS_TYPE":0,"NORAD_CAT_ID":69854,"ELEMENT_SET_NO":999,"REV_AT_EPOCH":196,"BSTAR":-1.0600112,"MEAN_MOTION_DOT":-0.02042683,"MEAN_MOTION_DDOT":0},{"OBJECT_NAME":"QIANFAN-226","OBJECT_ID":"2026-155H","EPOCH":"2026-07-19T08:52:39.104256","CLASSIFICATION_TYPE":"U","MEAN_MOTION":14.1754351,"ECCENTRICITY":0.00336005,"INCLINATION":89.0058,"RA_OF_ASC_NODE":60.4729,"ARG_OF_PERICENTER":218.1332,"MEAN_ANOMALY":141.7479,"EPHEMERIS_TYPE":0,"NORAD_CAT_ID":69855,"ELEMENT_SET_NO":999,"REV_AT_EPOCH":197,"BSTAR":-0.95337124,"MEAN_MOTION_DOT":-0.01814487,"MEAN_MOTION_DDOT":0},{"OBJECT_NAME":"QIANFAN-227","OBJECT_ID":"2026-155J","EPOCH":"2026-07-19T10:25:51.938688","CLASSIFICATION_TYPE":"U","MEAN_MOTION":14.18343532,"ECCENTRICITY":0.00342561,"INCLINATION":89.0058,"RA_OF_ASC_NODE":60.4639,"ARG_OF_PERICENTER":216.4994,"MEAN_ANOMALY":143.3861,"EPHEMERIS_TYPE":0,"NORAD_CAT_ID":69856,"ELEMENT_SET_NO":999,"REV_AT_EPOCH":198,"BSTAR":-0.91042618,"MEAN_MOTION_DOT":-0.0174343,"MEAN_MOTION_DDOT":0},{"OBJECT_NAME":"QIANFAN-228","OBJECT_ID":"2026-155K","EPOCH":"2026-07-17T23:00:18.463392","CLASSIFICATION_TYPE":"U","MEAN_MOTION":14.20295178,"ECCENTRICITY":0.00318777,"INCLINATION":89.0055,"RA_OF_ASC_NODE":60.6322,"ARG_OF_PERICENTER":218.7208,"MEAN_ANOMALY":141.1698,"EPHEMERIS_TYPE":0,"NORAD_CAT_ID":69857,"ELEMENT_SET_NO":999,"REV_AT_EPOCH":177,"BSTAR":-0.95328318,"MEAN_MOTION_DOT":-0.01902873,"MEAN_MOTION_DDOT":0},{"OBJECT_NAME":"QIANFAN-229","OBJECT_ID":"2026-155L","EPOCH":"2026-07-18T20:52:57.173088","CLASSIFICATION_TYPE":"U","MEAN_MOTION":14.26690212,"ECCENTRICITY":0.00308184,"INCLINATION":89.0064,"RA_OF_ASC_NODE":60.5275,"ARG_OF_PERICENTER":210.5909,"MEAN_ANOMALY":149.3489,"EPHEMERIS_TYPE":0,"NORAD_CAT_ID":69858,"ELEMENT_SET_NO":999,"REV_AT_EPOCH":190,"BSTAR":0.000060229541,"MEAN_MOTION_DOT":0.00000161,"MEAN_MOTION_DDOT":0},{"OBJECT_NAME":"QIANFAN-230","OBJECT_ID":"2026-155M","EPOCH":"2026-07-17T21:41:32.151840","CLASSIFICATION_TYPE":"U","MEAN_MOTION":14.16167691,"ECCENTRICITY":0.00329611,"INCLINATION":89.0054,"RA_OF_ASC_NODE":60.6411,"ARG_OF_PERICENTER":222.0372,"MEAN_ANOMALY":137.8286,"EPHEMERIS_TYPE":0,"NORAD_CAT_ID":69859,"ELEMENT_SET_NO":999,"REV_AT_EPOCH":176,"BSTAR":-1.0463152,"MEAN_MOTION_DOT":-0.01931944,"MEAN_MOTION_DDOT":0},{"OBJECT_NAME":"QIANFAN-231","OBJECT_ID":"2026-155N","EPOCH":"2026-07-18T22:39:37.495872","CLASSIFICATION_TYPE":"U","MEAN_MOTION":14.26097133,"ECCENTRICITY":0.00308993,"INCLINATION":89.0065,"RA_OF_ASC_NODE":60.5202,"ARG_OF_PERICENTER":209.7131,"MEAN_ANOMALY":150.2309,"EPHEMERIS_TYPE":0,"NORAD_CAT_ID":69860,"ELEMENT_SET_NO":999,"REV_AT_EPOCH":191,"BSTAR":0.000071810741,"MEAN_MOTION_DOT":0.00000187,"MEAN_MOTION_DDOT":0},{"OBJECT_NAME":"QIANFAN-232","OBJECT_ID":"2026-155P","EPOCH":"2026-07-18T22:32:08.653920","CLASSIFICATION_TYPE":"U","MEAN_MOTION":14.22492911,"ECCENTRICITY":0.0029251,"INCLINATION":89.0055,"RA_OF_ASC_NODE":60.5197,"ARG_OF_PERICENTER":204.9431,"MEAN_ANOMALY":155.0349,"EPHEMERIS_TYPE":0,"NORAD_CAT_ID":69861,"ELEMENT_SET_NO":999,"REV_AT_EPOCH":191,"BSTAR":-0.9287293,"MEAN_MOTION_DOT":-0.01928897,"MEAN_MOTION_DDOT":0},{"OBJECT_NAME":"QIANFAN-233","OBJECT_ID":"2026-155Q","EPOCH":"2026-07-19T13:39:21.505824","CLASSIFICATION_TYPE":"U","MEAN_MOTION":14.22233601,"ECCENTRICITY":0.00286859,"INCLINATION":89.006,"RA_OF_ASC_NODE":60.4472,"ARG_OF_PERICENTER":211.5277,"MEAN_ANOMALY":148.4197,"EPHEMERIS_TYPE":0,"NORAD_CAT_ID":69862,"ELEMENT_SET_NO":999,"REV_AT_EPOCH":200,"BSTAR":-0.79470459,"MEAN_MOTION_DOT":-0.01641998,"MEAN_MOTION_DDOT":0},{"OBJECT_NAME":"QIANFAN-234","OBJECT_ID":"2026-155R","EPOCH":"2026-07-19T20:26:20.320512","CLASSIFICATION_TYPE":"U","MEAN_MOTION":14.26759635,"ECCENTRICITY":0.00307273,"INCLINATION":89.0064,"RA_OF_ASC_NODE":60.4155,"ARG_OF_PERICENTER":207.719,"MEAN_ANOMALY":152.2368,"EPHEMERIS_TYPE":0,"NORAD_CAT_ID":69863,"ELEMENT_SET_NO":999,"REV_AT_EPOCH":204,"BSTAR":0.000069313168,"MEAN_MOTION_DOT":0.00000183,"MEAN_MOTION_DDOT":0},{"OBJECT_NAME":"QIANFAN-235","OBJECT_ID":"2026-155S","EPOCH":"2026-07-20T06:32:12.552864","CLASSIFICATION_TYPE":"U","MEAN_MOTION":14.26765652,"ECCENTRICITY":0.00307303,"INCLINATION":89.0063,"RA_OF_ASC_NODE":60.3675,"ARG_OF_PERICENTER":206.3122,"MEAN_ANOMALY":153.6513,"EPHEMERIS_TYPE":0,"NORAD_CAT_ID":69864,"ELEMENT_SET_NO":999,"REV_AT_EPOCH":210,"BSTAR":0.000066491264,"MEAN_MOTION_DOT":0.00000176,"MEAN_MOTION_DDOT":0},{"OBJECT_NAME":"QIANFAN-236","OBJECT_ID":"2026-155T","EPOCH":"2026-07-19T01:55:16.036608","CLASSIFICATION_TYPE":"U","MEAN_MOTION":14.26770514,"ECCENTRICITY":0.00305619,"INCLINATION":89.0064,"RA_OF_ASC_NODE":60.5035,"ARG_OF_PERICENTER":210.4183,"MEAN_ANOMALY":149.5239,"EPHEMERIS_TYPE":0,"NORAD_CAT_ID":69865,"ELEMENT_SET_NO":999,"REV_AT_EPOCH":193,"BSTAR":0.000072758697,"MEAN_MOTION_DOT":0.00000191,"MEAN_MOTION_DDOT":0},{"OBJECT_NAME":"QIANFAN-237","OBJECT_ID":"2026-155U","EPOCH":"2026-07-20T03:10:01.579008","CLASSIFICATION_TYPE":"U","MEAN_MOTION":14.2677911,"ECCENTRICITY":0.00306571,"INCLINATION":89.0063,"RA_OF_ASC_NODE":60.3835,"ARG_OF_PERICENTER":206.8464,"MEAN_ANOMALY":153.1145,"EPHEMERIS_TYPE":0,"NORAD_CAT_ID":69866,"ELEMENT_SET_NO":999,"REV_AT_EPOCH":207,"BSTAR":0.000071817173,"MEAN_MOTION_DOT":0.00000189,"MEAN_MOTION_DDOT":0},{"OBJECT_NAME":"QIANFAN-238","OBJECT_ID":"2026-155V","EPOCH":"2026-07-20T06:31:54.008832","CLASSIFICATION_TYPE":"U","MEAN_MOTION":14.26786643,"ECCENTRICITY":0.00306534,"INCLINATION":89.0063,"RA_OF_ASC_NODE":60.3674,"ARG_OF_PERICENTER":206.3965,"MEAN_ANOMALY":153.5669,"EPHEMERIS_TYPE":0,"NORAD_CAT_ID":69867,"ELEMENT_SET_NO":999,"REV_AT_EPOCH":210,"BSTAR":0.00007394288,"MEAN_MOTION_DOT":0.00000194,"MEAN_MOTION_DDOT":0}]}
