QIANFAN-225             
1 69854U 26155G   26200.30196267 -.02042683  00000+0 -10600+1 0  9998
2 69854  89.0056  60.4814 0034267 215.2357 144.6567 14.18662242  1967
QIANFAN-226             
1 69855U 26155H   26200.36989704 -.01814487  00000+0 -95337+0 0  9998
2 69855  89.0058  60.4729 0033600 218.1332 141.7479 14.17543510  1976
QIANFAN-227             
1 69856U 26155J   26200.43462892 -.01743430  00000+0 -91043+0 0  9990
2 69856  89.0058  60.4639 0034256 216.4994 143.3861 14.18343532  1987
QIANFAN-228             
1 69857U 26155K   26198.95854703 -.01902873  00000+0 -95328+0 0  9998
2 69857  89.0055  60.6322 0031877 218.7208 141.1698 14.20295178  1771
QIANFAN-229             
1 69858U 26155L   26199.87010617  .00000161  00000+0  60230-4 0  9994
2 69858  89.0064  60.5275 0030818 210.5909 149.3489 14.26690212  1907
QIANFAN-230             
1 69859U 26155M   26198.90384435 -.01931944  00000+0 -10463+1 0  9994
2 69859  89.0054  60.6411 0032961 222.0372 137.8286 14.16167691  1763
QIANFAN-231             
1 69860U 26155N   26199.94418398  .00000187  00000+0  71811-4 0  9998
2 69860  89.0065  60.5202 0030899 209.7131 150.2309 14.26097133  1913
QIANFAN-232             
1 69861U 26155P   26199.93898905 -.01928897  00000+0 -92873+0 0  9990
2 69861  89.0055  60.5197 0029251 204.9431 155.0349 14.22492911  1912
QIANFAN-233             
1 69862U 26155Q   26200.56899891 -.01641998  00000+0 -79470+0 0  9990
2 69862  89.0060  60.4472 0028685 211.5277 148.4197 14.22233601  2003
QIANFAN-234             
1 69863U 26155R   26200.85162408  .00000183  00000+0  69313-4 0  9992
2 69863  89.0064  60.4155 0030727 207.7190 152.2368 14.26759635  2048
QIANFAN-235             
1 69864U 26155S   26201.27236751  .00000176  00000+0  66491-4 0  9999
2 69864  89.0063  60.3675 0030730 206.3122 153.6513 14.26765652  2108
QIANFAN-236             
1 69865U 26155T   26200.08004672  .00000191  00000+0  72759-4 0  9994
2 69865  89.0064  60.5035 0030561 210.4183 149.5239 14.26770514  1939
QIANFAN-237             
1 69866U 26155U   26201.13196272  .00000189  00000+0  71817-4 0  9991
2 69866  89.0063  60.3835 0030657 206.8464 153.1145 14.26779110  2076
QIANFAN-238             
1 69867U 26155V   26201.27215288  .00000194  00000+0  73943-4 0  9994
2 69867  89.0063  60.3674 0030653 206.3965 153.5669 14.26786643  2103
